APRIZESAT 2             
1 28366U 04025A   26195.42102354  .00000095  00000+0  42427-4 0  9996
2 28366  98.1040 359.8628 0105889 167.1957 193.1959 14.38047429155557
SAUDICOMSAT 1           
1 28369U 04025D   26195.58324080  .00000143  00000+0  44155-4 0  9992
2 28369  98.5777 206.4547 0031017 300.8440  58.9706 14.55493311168110
SAUDICOMSAT 2           
1 28370U 04025E   26195.58967387  .00000093  00000+0  36161-4 0  9999
2 28370  98.6643 208.6106 0055615 175.5115 184.6588 14.49994203164071
APRIZESAT 1             
1 28372U 04025G   26195.58740129  .00000118  00000+0  40986-4 0  9992
2 28372  98.6309 207.0590 0045788  72.4739 288.1451 14.51791835165887
NANOSAT-1               
1 28493U 04049B   26195.34425573  .00000482  00000+0  70763-4 0  9999
2 28493  98.2308 332.6749 0003733 186.6399 173.4763 14.80209899159466
SAUDICOMSAT 7           
1 31119U 07012C   26195.48020620  .00000233  00000+0  50924-4 0  9991
2 31119  98.3797 170.1732 0056953 110.4798 250.2531 14.66136185 26433
SAUDICOMSAT 6           
1 31121U 07012E   26195.45547497  .00000170  00000+0  42635-4 0  9997
2 31121  98.4117 163.4826 0070501 241.4454 117.9639 14.62584184 24170
SAUDICOMSAT 5           
1 31124U 07012H   26195.48355430  .00000311  00000+0  62242-4 0  9990
2 31124  98.3510 170.9181 0048297  41.0208 319.4612 14.68191623 27603
SAUDICOMSAT 3           
1 31125U 07012J   26195.46471449  .00000374  00000+0  69500-4 0  9991
2 31125  98.3163 171.4454 0038322 327.5899  32.2953 14.70749138 28830
SAUDICOMSAT 4           
1 31127U 07012L   26195.41529226  .00000201  00000+0  46571-4 0  9997
2 31127  98.4003 168.5439 0063508 172.1611 188.0599 14.64535034 25278
APRIZESAT 4             
1 35684U 09041D   26195.43175073  .00000321  00000+0  45081-4 0  9990
2 35684  98.1404 271.2944 0042198 232.0406 127.6992 14.83913198915406
APRIZESAT 3             
1 35686U 09041F   26195.45006053  .00000971  00000+0  88768-4 0  9995
2 35686  98.2098 349.9859 0060857 338.4003  21.4651 14.96309686920451
S-NET D                 
1 43186U 18014G   26195.64155642  .00002526  00000+0  13158-3 0  9997
2 43186  97.5336 100.2620 0006267 287.3690  72.6857 15.16914930462921
S-NET B                 
1 43187U 18014H   26195.58758271  .00002480  00000+0  12935-3 0  9999
2 43187  97.5341 100.1957 0006862 281.2519  78.7942 15.16884355462912
S-NET A                 
1 43188U 18014J   26195.64028261  .00002467  00000+0  12855-3 0  9992
2 43188  97.5351 100.4624 0006739 282.2529  77.7949 15.16922932462924
S-NET C                 
1 43189U 18014K   26195.45967154  .00002485  00000+0  12959-3 0  9990
2 43189  97.5369 100.3615 0008148 273.4828  86.5473 15.16874825461446
SALSAT                  
1 46495U 20068K   26195.54877328  .00004163  00000+0  14541-3 0  9992
2 46495  97.8856 200.2874 0009148 195.2534 164.8431 15.30166467319545
OOV-CUBE (TUBSAT-30)    
1 60240U 24128F   26195.40209776  .00001023  00000+0  90398-4 0  9995
2 60240  61.9937 130.6682 0041218 139.8475 220.5674 15.02871955110201
LPNTSAT-001 (IOD-1)     
1 68408U 26065A   26195.61955926  .00001398  00000+0  70560-4 0  9993
2 68408  97.3982  75.5460 0014623 268.7074  91.2485 15.18667253 16429
CHUANG XIN 26 (CX-26)   
1 69972U 26158A   26194.51442212 -.00000212  00000+0 -21871-4 0  9997
2 69972  49.9860 287.5119 0004887 294.2352  65.8050 14.25122238   462
